{"type": "FeatureCollection", "features": [ {"type": "Feature", "properties": {"norad_id": 66559, "name": "STARLINK-35419", "group": "last-30-days", "lat": -41.91944506379646, "lon": 27.55759934687528, "alt_km": 417.23587224162566, "timestamp": "2025-12-10T16:57:10.416088+00:00", "meta": {"OBJECT_NAME": "STARLINK-35419", "OBJECT_ID": "2025-268C", "EPOCH": "2025-12-10T12:00:02.998944", "MEAN_MOTION": 15.50598031, "ECCENTRICITY": 0.0001722, "INCLINATION": 43.0003, "RA_OF_ASC_NODE": 134.289, "ARG_OF_PERICENTER": 266.9831, "MEAN_ANOMALY": 278.3475, "EPHEMERIS_TYPE": 0, "CLASSIFICATION_TYPE": "U", "NORAD_CAT_ID": 66559, "ELEMENT_SET_NO": 999, "REV_AT_EPOCH": 430, "BSTAR": -0.0012931, "MEAN_MOTION_DOT": -0.0007553, "MEAN_MOTION_DDOT": 0}, "tle": {"line1": "1 66559U 25268C   25344.50003471 -.00075530  00000+0 -12931-2 0  9991", "line2": "2 66559  43.0003 134.2890 0001722 266.9831 278.3475 15.50598031  4307"}}, "geometry": {"type": "Point", "coordinates": [27.55759934687528, -41.91944506379646]}}, {"type": "Feature", "properties": {"norad_id": 66560, "name": "STARLINK-35411", "group": "last-30-days", "lat": -42.23993811565701, "lon": 30.08824082203391, "alt_km": 417.2405476488466, "timestamp": "2025-12-10T16:57:10.416098+00:00", "meta": {"OBJECT_NAME": "STARLINK-35411", "OBJECT_ID": "2025-268D", "EPOCH": "2025-12-10T12:00:02.998944", "MEAN_MOTION": 15.50585438, "ECCENTRICITY": 0.0001748, "INCLINATION": 43.0003, "RA_OF_ASC_NODE": 134.2842, "ARG_OF_PERICENTER": 268.5593, "MEAN_ANOMALY": 278.6888, "EPHEMERIS_TYPE": 0, "CLASSIFICATION_TYPE": "U", "NORAD_CAT_ID": 66560, "ELEMENT_SET_NO": 999, "REV_AT_EPOCH": 430, "BSTAR": -0.0008837, "MEAN_MOTION_DOT": -0.00051855, "MEAN_MOTION_DDOT": 0}, "tle": {"line1": "1 66560U 25268D   25344.50003471 -.00051855  00000+0 -88370-3 0  9998", "line2": "2 66560  43.0003 134.2842 0001748 268.5593 278.6888 15.50585438  4305"}}, "geometry": {"type": "Point", "coordinates": [30.08824082203391, -42.23993811565701]}}, {"type": "Feature", "properties": {"norad_id": 66561, "name": "STARLINK-35305", "group": "last-30-days", "lat": -42.71207265342011, "lon": 35.23446195274473, "alt_km": 417.2989940616553, "timestamp": "2025-12-10T16:57:10.416110+00:00", "meta": {"OBJECT_NAME": "STARLINK-35305", "OBJECT_ID": "2025-268E", "EPOCH": "2025-12-10T12:00:02.998944", "MEAN_MOTION": 15.50589325, "ECCENTRICITY": 0.0001667, "INCLINATION": 43.0003, "RA_OF_ASC_NODE": 134.2745, "ARG_OF_PERICENTER": 267.3901, "MEAN_ANOMALY": 283.692, "EPHEMERIS_TYPE": 0, "CLASSIFICATION_TYPE": "U", "NORAD_CAT_ID": 66561, "ELEMENT_SET_NO": 999, "REV_AT_EPOCH": 426, "BSTAR": -0.0010187, "MEAN_MOTION_DOT": -0.00059671, "MEAN_MOTION_DDOT": 0}, "tle": {"line1": "1 66561U 25268E   25344.50003471 -.00059671  00000+0 -10187-2 0  9993", "line2": "2 66561  43.0003 134.2745 0001667 267.3901 283.6920 15.50589325  4265"}}, "geometry": {"type": "Point", "coordinates": [35.23446195274473, -42.71207265342011]}}, {"type": "Feature", "properties": {"norad_id": 66562, "name": "STARLINK-35579", "group": "last-30-days", "lat": -42.50414101795446, "lon": 32.642680070337654, "alt_km": 417.2946632171979, "timestamp": "2025-12-10T16:57:10.416122+00:00", "meta": {"OBJECT_NAME": "STARLINK-35579", "OBJECT_ID": "2025-268F", "EPOCH": "2025-12-10T12:00:02.998944", "MEAN_MOTION": 15.50577387, "ECCENTRICITY": 0.0001686, "INCLINATION": 43.0003, "RA_OF_ASC_NODE": 134.2787, "ARG_OF_PERICENTER": 268.7609, "MEAN_ANOMALY": 280.4028, "EPHEMERIS_TYPE": 0, "CLASSIFICATION_TYPE": "U", "NORAD_CAT_ID": 66562, "ELEMENT_SET_NO": 999, "REV_AT_EPOCH": 430, "BSTAR": -0.00063109, "MEAN_MOTION_DOT": -0.00037187, "MEAN_MOTION_DDOT": 0}, "tle": {"line1": "1 66562U 25268F   25344.50003471 -.00037187  00000+0 -63109-3 0  9995", "line2": "2 66562  43.0003 134.2787 0001686 268.7609 280.4028 15.50577387  4307"}}, "geometry": {"type": "Point", "coordinates": [32.642680070337654, -42.50414101795446]}}, {"type": "Feature", "properties": {"norad_id": 66563, "name": "STARLINK-35437", "group": "last-30-days", "lat": -42.8602197746658, "lon": 37.82258076708915, "alt_km": 417.3198725243201, "timestamp": "2025-12-10T16:57:10.416132+00:00", "meta": {"OBJECT_NAME": "STARLINK-35437", "OBJECT_ID": "2025-268G", "EPOCH": "2025-12-10T12:00:02.998944", "MEAN_MOTION": 15.50580516, "ECCENTRICITY": 0.0001652, "INCLINATION": 43.0003, "RA_OF_ASC_NODE": 134.2693, "ARG_OF_PERICENTER": 268.4187, "MEAN_ANOMALY": 284.5789, "EPHEMERIS_TYPE": 0, "CLASSIFICATION_TYPE": "U", "NORAD_CAT_ID": 66563, "ELEMENT_SET_NO": 999, "REV_AT_EPOCH": 430, "BSTAR": -0.00071621, "MEAN_MOTION_DOT": -0.00042135, "MEAN_MOTION_DDOT": 0}, "tle": {"line1": "1 66563U 25268G   25344.50003471 -.00042135  00000+0 -71621-3 0  9993", "line2": "2 66563  43.0003 134.2693 0001652 268.4187 284.5789 15.50580516  4302"}}, "geometry": {"type": "Point", "coordinates": [37.82258076708915, -42.8602197746658]}}, {"type": "Feature", "properties": {"norad_id": 66564, "name": "STARLINK-35358", "group": "last-30-days", "lat": -42.94969494481236, "lon": 40.429854235678846, "alt_km": 417.28928047600766, "timestamp": "2025-12-10T16:57:10.416144+00:00", "meta": {"OBJECT_NAME": "STARLINK-35358", "OBJECT_ID": "2025-268H", "EPOCH": "2025-12-10T12:00:02.998944", "MEAN_MOTION": 15.50587598, "ECCENTRICITY": 0.0001689, "INCLINATION": 43.0002, "RA_OF_ASC_NODE": 134.2647, "ARG_OF_PERICENTER": 270.1977, "MEAN_ANOMALY": 284.7145, "EPHEMERIS_TYPE": 0, "CLASSIFICATION_TYPE": "U", "NORAD_CAT_ID": 66564, "ELEMENT_SET_NO": 999, "REV_AT_EPOCH": 426, "BSTAR": -0.00089874, "MEAN_MOTION_DOT": -0.0005273, "MEAN_MOTION_DDOT": 0}, "tle": {"line1": "1 66564U 25268H   25344.50003471 -.00052730  00000+0 -89874-3 0  9995", "line2": "2 66564  43.0002 134.2647 0001689 270.1977 284.7145 15.50587598  4268"}}, "geometry": {"type": "Point", "coordinates": [40.429854235678846, -42.94969494481236]}}, {"type": "Feature", "properties": {"norad_id": 66565, "name": "STARLINK-35893", "group": "last-30-days", "lat": -42.9797563207163, "lon": 43.04629574154418, "alt_km": 417.27983939861497, "timestamp": "2025-12-10T16:57:10.416154+00:00", "meta": {"OBJECT_NAME": "STARLINK-35893", "OBJECT_ID": "2025-268J", "EPOCH": "2025-12-10T12:00:02.998944", "MEAN_MOTION": 15.5058535, "ECCENTRICITY": 0.0001709, "INCLINATION": 43.0002, "RA_OF_ASC_NODE": 134.2596, "ARG_OF_PERICENTER": 266.11, "MEAN_ANOMALY": 290.7231, "EPHEMERIS_TYPE": 0, "CLASSIFICATION_TYPE": "U", "NORAD_CAT_ID": 66565, "ELEMENT_SET_NO": 999, "REV_AT_EPOCH": 430, "BSTAR": -0.00085944, "MEAN_MOTION_DOT": -0.00050449, "MEAN_MOTION_DDOT": 0}, "tle": {"line1": "1 66565U 25268J   25344.50003471 -.00050449  00000+0 -85944-3 0  9995", "line2": "2 66565  43.0002 134.2596 0001709 266.1100 290.7231 15.50585350  4300"}}, "geometry": {"type": "Point", "coordinates": [43.04629574154418, -42.9797563207163]}}, {"type": "Feature", "properties": {"norad_id": 66566, "name": "STARLINK-35871", "group": "last-30-days", "lat": -42.94993880659865, "lon": 45.664808627624, "alt_km": 417.3720057885521, "timestamp": "2025-12-10T16:57:10.416163+00:00", "meta": {"OBJECT_NAME": "STARLINK-35871", "OBJECT_ID": "2025-268K", "EPOCH": "2025-12-10T12:00:02.998944", "MEAN_MOTION": 15.50582063, "ECCENTRICITY": 0.0001586, "INCLINATION": 43.0002, "RA_OF_ASC_NODE": 134.255, "ARG_OF_PERICENTER": 265.9252, "MEAN_ANOMALY": 292.8322, "EPHEMERIS_TYPE": 0, "CLASSIFICATION_TYPE": "U", "NORAD_CAT_ID": 66566, "ELEMENT_SET_NO": 999, "REV_AT_EPOCH": 430, "BSTAR": -0.00082523, "MEAN_MOTION_DOT": -0.00048461, "MEAN_MOTION_DDOT": 0}, "tle": {"line1": "1 66566U 25268K   25344.50003471 -.00048461  00000+0 -82523-3 0  9997", "line2": "2 66566  43.0002 134.2550 0001586 265.9252 292.8322 15.50582063  4301"}}, "geometry": {"type": "Point", "coordinates": [45.664808627624, -42.94993880659865]}}, {"type": "Feature", "properties": {"norad_id": 66567, "name": "STARLINK-35825", "group": "last-30-days", "lat": -42.855205705573596, "lon": 48.39074999996075, "alt_km": 416.62725928905184, "timestamp": "2025-12-10T16:57:10.416173+00:00", "meta": {"OBJECT_NAME": "STARLINK-35825", "OBJECT_ID": "2025-268L", "EPOCH": "2025-12-10T12:00:02.998944", "MEAN_MOTION": 15.50656061, "ECCENTRICITY": 0.0002094, "INCLINATION": 43.0003, "RA_OF_ASC_NODE": 134.2501, "ARG_OF_PERICENTER": 277.0892, "MEAN_ANOMALY": 283.5973, "EPHEMERIS_TYPE": 0, "CLASSIFICATION_TYPE": "U", "NORAD_CAT_ID": 66567, "ELEMENT_SET_NO": 999, "REV_AT_EPOCH": 430, "BSTAR": 0.0019574, "MEAN_MOTION_DOT": 0.00116535, "MEAN_MOTION_DDOT": 0}, "tle": {"line1": "1 66567U 25268L   25344.50003471  .00116535  00000+0  19574-2 0  9999", "line2": "2 66567  43.0003 134.2501 0002094 277.0892 283.5973 15.50656061  4307"}}, "geometry": {"type": "Point", "coordinates": [48.39074999996075, -42.855205705573596]}}, {"type": "Feature", "properties": {"norad_id": 66568, "name": "STARLINK-35803", "group": "last-30-days", "lat": -42.71198920515978, "lon": 50.87022858166841, "alt_km": 417.41013895642845, "timestamp": "2025-12-10T16:57:10.416183+00:00", "meta": {"OBJECT_NAME": "STARLINK-35803", "OBJECT_ID": "2025-268M", "EPOCH": "2025-12-10T12:00:02.998944", "MEAN_MOTION": 15.50589152, "ECCENTRICITY": 0.0001534, "INCLINATION": 43.0002, "RA_OF_ASC_NODE": 134.2448, "ARG_OF_PERICENTER": 263.1521, "MEAN_ANOMALY": 299.4382, "EPHEMERIS_TYPE": 0, "CLASSIFICATION_TYPE": "U", "NORAD_CAT_ID": 66568, "ELEMENT_SET_NO": 999, "REV_AT_EPOCH": 430, "BSTAR": -0.0010775, "MEAN_MOTION_DOT": -0.0006307, "MEAN_MOTION_DDOT": 0}, "tle": {"line1": "1 66568U 25268M   25344.50003471 -.00063070  00000+0 -10775-2 0  9991", "line2": "2 66568  43.0002 134.2448 0001534 263.1521 299.4382 15.50589152  4306"}}, "geometry": {"type": "Point", "coordinates": [50.87022858166841, -42.71198920515978]}}]}